ONEWEB-0228             
1 48780U 21045P   24210.92468858 -.00000138  00000+0 -40462-3 0  9990
2 48780  87.9015  36.1386 0001748  84.5932 275.5397 13.15071053153831
